$$SOE
2460728.500000000, A.D. 2025-Feb-22 00:00:00.0000, 2.695116457195939E+08, 1.701991057653970E+08, -1.134060787050235E+08,
2460735.500000000, A.D. 2025-Mar-01 00:00:00.0000, 2.603989190226607E+08, 1.783703224276997E+08, -1.142302357834664E+08,
2460742.500000000, A.D. 2025-Mar-08 00:00:00.0000, 2.509519911262176E+08, 1.863125861756975E+08, -1.149077529996998E+08,
2460749.500000000, A.D. 2025-Mar-15 00:00:00.0000, 2.411752133002768E+08, 1.940099311208938E+08, -1.154341982708931E+08,
2460756.500000000, A.D. 2025-Mar-22 00:00:00.0000, 2.310737325165775E+08, 2.014460435131042E+08, -1.158051891377839E+08,
2460763.500000000, A.D. 2025-Mar-29 00:00:00.0000, 2.206535455559955E+08, 2.086042854779041E+08, -1.160164129094322E+08,
2460770.500000000, A.D. 2025-Apr-05 00:00:00.0000, 2.099215558906091E+08, 2.154677253626544E+08, -1.160636490347358E+08,
2460777.500000000, A.D. 2025-Apr-12 00:00:00.0000, 1.988856309314879E+08, 2.220191753478128E+08, -1.159427935982007E+08,
2460784.500000000, A.D. 2025-Apr-19 00:00:00.0000, 1.875546588724052E+08, 2.282412359959821E+08, -1.156498860578529E+08,
2460791.500000000, A.D. 2025-Apr-26 00:00:00.0000, 1.759386047085547E+08, 2.341163480744866E+08, -1.151811383022082E+08,
2460798.500000000, A.D. 2025-May-03 00:00:00.0000, 1.640485647327327E+08, 2.396268521780702E+08, -1.145329660351320E+08,
2460805.500000000, A.D. 2025-May-10 00:00:00.0000, 1.518968186019111E+08, 2.447550566170476E+08, -1.137020224472723E+08,
2460812.500000000, A.D. 2025-May-17 00:00:00.0000, 1.394968779478431E+08, 2.494833139132429E+08, -1.126852340861783E+08,
2460819.500000000, A.D. 2025-May-24 00:00:00.0000, 1.268635305158025E+08, 2.537941061340576E+08, -1.114798387914034E+08,
2460826.500000000, A.D. 2025-May-31 00:00:00.0000, 1.140128789392162E+08, 2.576701395343209E+08, -1.100834254869258E+08,
2460833.500000000, A.D. 2025-Jun-07 00:00:00.0000, 1.009623723335483E+08, 2.610944497085782E+08, -1.084939753998716E+08,
2460840.500000000, A.D. 2025-Jun-14 00:00:00.0000, 8.773082683412527E+07, 2.640505163838012E+08, -1.067099041550511E+08,
2460847.500000000, A.D. 2025-Jun-21 00:00:00.0000, 7.433843470550703E+07, 2.665223841633438E+08, -1.047301046475607E+08,
2460854.500000000, A.D. 2025-Jun-28 00:00:00.0000, 6.080676354099260E+07, 2.684947903250508E+08, -1.025539902820831E+08,
2460861.500000000, A.D. 2025-Jul-05 00:00:00.0000, 4.715874244152711E+07, 2.699533008711546E+08, -1.001815376091447E+08,
2460868.500000000, A.D. 2025-Jul-12 00:00:00.0000, 3.341863244245020E+07, 2.708844527570173E+08, -9.761332756503515E+07,
2460875.500000000, A.D. 2025-Jul-19 00:00:00.0000, 1.961197995734715E+07, 2.712759001384585E+08, -9.485058455027150E+07,
2460882.500000000, A.D. 2025-Jul-26 00:00:00.0000, 5.765552217478405E+06, 2.711165626706854E+08, -9.189521247240737E+07,
2460889.500000000, A.D. 2025-Aug-02 00:00:00.0000, -8.092746199950270E+06, 2.703967736523394E+08, -8.874982680744565E+07,
2460896.500000000, A.D. 2025-Aug-09 00:00:00.0000, -2.193397637118156E+07, 2.691084254781194E+08, -8.541778170466901E+07,
2460903.500000000, A.D. 2025-Aug-16 00:00:00.0000, -3.572828771242781E+07, 2.672451095622238E+08, -8.190319116897479E+07,
2460910.500000000, A.D. 2025-Aug-23 00:00:00.0000, -4.944505982891650E+07, 2.648022477814799E+08, -7.821094340241253E+07,
2460917.500000000, A.D. 2025-Aug-30 00:00:00.0000, -6.305306244385316E+07, 2.617772130711702E+08, -7.434670740628813E+07,
2460924.500000000, A.D. 2025-Sep-06 00:00:00.0000, -7.652063350753726E+07, 2.581694370787431E+08, -7.031693087730695E+07,
2460931.500000000, A.D. 2025-Sep-13 00:00:00.0000, -8.981587524378063E+07, 2.539804993792756E+08, -6.612882883740541E+07,
2460938.500000000, A.D. 2025-Sep-20 00:00:00.0000, -1.029068623769141E+08, 2.492141937762753E+08, -6.179036299272566E+07,
2460945.500000000, A.D. 2025-Sep-27 00:00:00.0000, -1.157618584740665E+08, 2.438765723019234E+08, -5.731021145393375E+07,
2460952.500000000, A.D. 2025-Oct-04 00:00:00.0000, -1.283495389273149E+08, 2.379759653970227E+08, -5.269772862422523E+07,
2460959.500000000, A.D. 2025-Oct-11 00:00:00.0000, -1.406392170878788E+08, 2.315229757972453E+08, -4.796289559260616E+07,
2460966.500000000, A.D. 2025-Oct-18 00:00:00.0000, -1.526010691623250E+08, 2.245304449686838E+08, -4.311626166023828E+07,
2460973.500000000, A.D. 2025-Oct-25 00:00:00.0000, -1.642063534974836E+08, 2.170133919450632E+08, -3.816887786439833E+07,
2460980.500000000, A.D. 2025-Nov-01 00:00:00.0000, -1.754276199933828E+08, 2.089889251686518E+08, -3.313222359219118E+07,
2460987.500000000, A.D. 2025-Nov-08 00:00:00.0000, -1.862389055608719E+08, 2.004761286200658E+08, -2.801812757692946E+07,
2460994.500000000, A.D. 2025-Nov-15 00:00:00.0000, -1.966159117591045E+08, 1.914959241856248E+08, -2.283868474021310E+07,
2461001.500000000, A.D. 2025-Nov-22 00:00:00.0000, -2.065361609660164E+08, 1.820709131146667E+08, -1.760617045474275E+07,
2461008.500000000, A.D. 2025-Nov-29 00:00:00.0000, -2.159791285801817E+08, 1.722252008647572E+08, -1.233295373469520E+07,
2461015.500000000, A.D. 2025-Dec-06 00:00:00.0000, -2.249263515563896E+08, 1.619842087771796E+08, -7.031410769703858E+06,
2461022.500000000, A.D. 2025-Dec-13 00:00:00.0000, -2.333615115878677E+08, 1.513744730747090E+08, -1.713840671434850E+06,
2461029.500000000, A.D. 2025-Dec-20 00:00:00.0000, -2.412704889068811E+08, 1.404234361810558E+08, 3.607614895113729E+06,
2461036.500000000, A.D. 2025-Dec-27 00:00:00.0000, -2.486413879803703E+08, 1.291592368940487E+08, 8.921047225689910E+06,
2461043.500000000, A.D. 2026-Jan-03 00:00:00.0000, -2.554645374592078E+08, 1.176105026054533E+08, 1.421485022782096E+07,
2461050.500000000, A.D. 2026-Jan-10 00:00:00.0000, -2.617324657566713E+08, 1.058061464305949E+08, 1.947778327217224E+07,
2461057.500000000, A.D. 2026-Jan-17 00:00:00.0000, -2.674398540067490E+08, 9.377517231788284E+07, 2.469902657602077E+07,
2461064.500000000, A.D. 2026-Jan-24 00:00:00.0000, -2.725834687064976E+08, 8.154649087650414E+07, 2.986822870506079E+07,
2461071.500000000, A.D. 2026-Jan-31 00:00:00.0000, -2.771620766847248E+08, 6.914874814134607E+07, 3.497554600521424E+07,
2461078.500000000, A.D. 2026-Feb-07 00:00:00.0000, -2.811763451697328E+08, 5.661016893395834E+07, 4.001167397517774E+07,
2461085.500000000, A.D. 2026-Feb-14 00:00:00.0000, -2.846287295980831E+08, 4.395841601227188E+07, 4.496787075981649E+07,
2461092.500000000, A.D. 2026-Feb-21 00:00:00.0000, -2.875233516357607E+08, 3.122046630834498E+07, 4.983597313621009E+07,
2461099.500000000, A.D. 2026-Feb-28 00:00:00.0000, -2.898658712379863E+08, 1.842250568169538E+07, 5.460840567128851E+07,
2461106.500000000, A.D. 2026-Mar-07 00:00:00.0000, -2.916633573696133E+08, 5.589840114375480E+06, 5.927818366055656E+07,
2461113.500000000, A.D. 2026-Mar-14 00:00:00.0000, -2.929241569460346E+08, -7.253179443458714E+06, 6.383891004865351E+07,
2461120.500000000, A.D. 2026-Mar-21 00:00:00.0000, -2.936577622693601E+08, -2.008321641220248E+07, 6.828476708437565E+07,
2461127.500000000, A.D. 2026-Mar-28 00:00:00.0000, -2.938746807354564E+08, -3.287799203890456E+07, 7.261050366401514E+07,
2461134.500000000, A.D. 2026-Apr-04 00:00:00.0000, -2.935863089106227E+08, -4.561631506864479E+07, 7.681141902007127E+07,
2461141.500000000, A.D. 2026-Apr-11 00:00:00.0000, -2.928048119292839E+08, -5.827809922438589E+07, 8.088334336498132E+07,
2461148.500000000, A.D. 2026-Apr-18 00:00:00.0000, -2.915430090086596E+08, -7.084436978744318E+07, 8.482261610582715E+07,
2461155.500000000, A.D. 2026-Apr-25 00:00:00.0000, -2.898142657395009E+08, -8.329726056346507E+07, 8.862606221321759E+07,
2461162.500000000, A.D. 2026-May-02 00:00:00.0000, -2.876323936026387E+08, -9.562000254247923E+07, 9.229096727269498E+07,
2461169.500000000, A.D. 2026-May-09 00:00:00.0000, -2.850115568687047E+08, -1.077969055505779E+08, 9.581505167757505E+07,
2461176.500000000, A.D. 2026-May-16 00:00:00.0000, -2.819661866137345E+08, -1.198133339194609E+08, 9.919644435580456E+07,
2461183.500000000, A.D. 2026-May-23 00:00:00.0000, -2.785109017653735E+08, -1.316556762357711E+08, 1.024336564665750E+08,
2461190.500000000, A.D. 2026-May-30 00:00:00.0000, -2.746604391071162E+08, -1.433113098468565E+08, 1.055255555844202E+08,
2461197.500000000, A.D. 2026-Jun-06 00:00:00.0000, -2.704295923169780E+08, -1.547685643012377E+08, 1.084713403836004E+08,
2461204.500000000, A.D. 2026-Jun-13 00:00:00.0000, -2.658331560670105E+08, -1.660166843325281E+08, 1.112705157098237E+08,
2461211.500000000, A.D. 2026-Jun-20 00:00:00.0000, -2.608858753235613E+08, -1.770457901675126E+08, 1.139228684874087E+08,
2461218.500000000, A.D. 2026-Jun-27 00:00:00.0000, -2.556024011461155E+08, -1.878468361108226E+08, 1.164284447107682E+08,
2461225.500000000, A.D. 2026-Jul-04 00:00:00.0000, -2.499972525621157E+08, -1.984115687090758E+08, 1.187875275423413E+08,
2461232.500000000, A.D. 2026-Jul-11 00:00:00.0000, -2.440847838324283E+08, -2.087324850755657E+08, 1.210006165394531E+08,
2461239.500000000, A.D. 2026-Jul-18 00:00:00.0000, -2.378791565824881E+08, -2.188027917259628E+08, 1.230684080354134E+08,
2461246.500000000, A.D. 2026-Jul-25 00:00:00.0000, -2.313943163486884E+08, -2.286163642346579E+08, 1.249917766849182E+08,
2461253.500000000, A.D. 2026-Aug-01 00:00:00.0000, -2.246439730809658E+08, -2.381677080156825E+08, 1.267717581641853E+08,
2461260.500000000, A.D. 2026-Aug-08 00:00:00.0000, -2.176415849971671E+08, -2.474519204666749E+08, 1.284095329916511E+08,
2461267.500000000, A.D. 2026-Aug-15 00:00:00.0000, -2.104003450076239E+08, -2.564646541782260E+08, 1.299064114455997E+08,
2461274.500000000, A.D. 2026-Aug-22 00:00:00.0000, -2.029331701263027E+08, -2.652020800962734E+08, 1.312638197145476E+08,
2461281.500000000, A.D. 2026-Aug-29 00:00:00.0000, -1.952526958339590E+08, -2.736608520840764E+08, 1.324832873349284E+08,
2461288.500000000, A.D. 2026-Sep-05 00:00:00.0000, -1.873712729592318E+08, -2.818380757992749E+08, 1.335664354382756E+08,
2461295.500000000, A.D. 2026-Sep-12 00:00:00.0000, -1.793009643477408E+08, -2.897312794144390E+08, 1.345149657373241E+08,
$$EOE